KUIPER-00053            
1 64513U 25134P   25351.92995910 -.00017566  00000+0 -22800-2 0  9994
2 64513  51.9009 224.6292 0002445  81.2445 278.8794 14.79952801 28103
KUIPER-00054            
1 64514U 25134Q   25352.00245842  .00002364  00000+0  33883-3 0  9999
2 64514  51.8975 219.2954 0005792  47.2056 312.9392 14.79958548 28184
KUIPER-00055            
1 64515U 25134R   25352.00289192  .00010221  00000+0  51072-3 0  9997
2 64515  51.8897 203.8118 0002475 196.6339 163.4559 15.18009985 28402
KUIPER-00056            
1 64516U 25134S   25352.06325492 -.00001094  00000+0 -11441-3 0  9994
2 64516  51.9019 225.0721 0002892  60.1672 299.9577 14.79931479 28115
KUIPER-00057            
1 64517U 25134T   25352.12271282 -.00000942  00000+0 -94146-4 0  9994
2 64517  51.9004 232.2993 0009532  12.6091 347.5108 14.79917177 28014
KUIPER-00058            
1 64518U 25134U   25352.06225299  .00004063  00000+0  56191-3 0  9998
2 64518  51.8992 226.4849 0004750  62.1716 297.9727 14.79920343 28098
KUIPER-00059            
1 64519U 25134V   25351.86482921  .00002746  00000+0  38919-3 0  9997
2 64519  51.8990 222.4120 0003624 180.7090 179.3868 14.79929214 28136
KUIPER-00060            
1 64520U 25134W   25351.93100463  .00006038  00000+0  82038-3 0  9994
2 64520  51.9027 223.1612 0002965  94.1659 265.9642 14.79935066 28112
