<?xml version="1.0" encoding="UTF-8"?>
<ndm xmlns:xsi="http://www.w3.org/2001/XMLSchema-instance" xsi:noNamespaceSchemaLocation="https://sanaregistry.org/r/ndmxml_unqualified/ndmxml-2.0.0-master-2.0.xsd">
<omm id="CCSDS_OMM_VERS" version="2.0">
<header><CREATION_DATE/><ORIGINATOR/></header><body><segment><metadata><OBJECT_NAME>KUIPER-00053</OBJECT_NAME><OBJECT_ID>2025-134P</OBJECT_ID><CENTER_NAME>EARTH</CENTER_NAME><REF_FRAME>TEME</REF_FRAME><TIME_SYSTEM>UTC</TIME_SYSTEM><MEAN_ELEMENT_THEORY>SGP4</MEAN_ELEMENT_THEORY></metadata><data><meanElements><EPOCH>2025-12-17T22:19:08.466240</EPOCH><MEAN_MOTION>14.79952801</MEAN_MOTION><ECCENTRICITY>.00024454</ECCENTRICITY><INCLINATION>51.9009</INCLINATION><RA_OF_ASC_NODE>224.6292</RA_OF_ASC_NODE><ARG_OF_PERICENTER>81.2445</ARG_OF_PERICENTER><MEAN_ANOMALY>278.8794</MEAN_ANOMALY></meanElements><tleParameters><EPHEMERIS_TYPE>0</EPHEMERIS_TYPE><CLASSIFICATION_TYPE>U</CLASSIFICATION_TYPE><NORAD_CAT_ID>64513</NORAD_CAT_ID><ELEMENT_SET_NO>999</ELEMENT_SET_NO><REV_AT_EPOCH>2810</REV_AT_EPOCH><BSTAR>-.22799964E-2</BSTAR><MEAN_MOTION_DOT>-.17566E-3</MEAN_MOTION_DOT><MEAN_MOTION_DDOT>0</MEAN_MOTION_DDOT></tleParameters></data></segment></body></omm>
<omm id="CCSDS_OMM_VERS" version="2.0">
<header><CREATION_DATE/><ORIGINATOR/></header><body><segment><metadata><OBJECT_NAME>KUIPER-00054</OBJECT_NAME><OBJECT_ID>2025-134Q</OBJECT_ID><CENTER_NAME>EARTH</CENTER_NAME><REF_FRAME>TEME</REF_FRAME><TIME_SYSTEM>UTC</TIME_SYSTEM><MEAN_ELEMENT_THEORY>SGP4</MEAN_ELEMENT_THEORY></metadata><data><meanElements><EPOCH>2025-12-18T00:03:32.407488</EPOCH><MEAN_MOTION>14.79958548</MEAN_MOTION><ECCENTRICITY>.00057928</ECCENTRICITY><INCLINATION>51.8975</INCLINATION><RA_OF_ASC_NODE>219.2954</RA_OF_ASC_NODE><ARG_OF_PERICENTER>47.2056</ARG_OF_PERICENTER><MEAN_ANOMALY>312.9392</MEAN_ANOMALY></meanElements><tleParameters><EPHEMERIS_TYPE>0</EPHEMERIS_TYPE><CLASSIFICATION_TYPE>U</CLASSIFICATION_TYPE><NORAD_CAT_ID>64514</NORAD_CAT_ID><ELEMENT_SET_NO>999</ELEMENT_SET_NO><REV_AT_EPOCH>2818</REV_AT_EPOCH><BSTAR>.33883355E-3</BSTAR><MEAN_MOTION_DOT>.2364E-4</MEAN_MOTION_DOT><MEAN_MOTION_DDOT>0</MEAN_MOTION_DDOT></tleParameters></data></segment></body></omm>
<omm id="CCSDS_OMM_VERS" version="2.0">
<header><CREATION_DATE/><ORIGINATOR/></header><body><segment><metadata><OBJECT_NAME>KUIPER-00055</OBJECT_NAME><OBJECT_ID>2025-134R</OBJECT_ID><CENTER_NAME>EARTH</CENTER_NAME><REF_FRAME>TEME</REF_FRAME><TIME_SYSTEM>UTC</TIME_SYSTEM><MEAN_ELEMENT_THEORY>SGP4</MEAN_ELEMENT_THEORY></metadata><data><meanElements><EPOCH>2025-12-18T00:04:09.861888</EPOCH><MEAN_MOTION>15.18009985</MEAN_MOTION><ECCENTRICITY>.00024751</ECCENTRICITY><INCLINATION>51.8897</INCLINATION><RA_OF_ASC_NODE>203.8118</RA_OF_ASC_NODE><ARG_OF_PERICENTER>196.6339</ARG_OF_PERICENTER><MEAN_ANOMALY>163.4559</MEAN_ANOMALY></meanElements><tleParameters><EPHEMERIS_TYPE>0</EPHEMERIS_TYPE><CLASSIFICATION_TYPE>U</CLASSIFICATION_TYPE><NORAD_CAT_ID>64515</NORAD_CAT_ID><ELEMENT_SET_NO>999</ELEMENT_SET_NO><REV_AT_EPOCH>2840</REV_AT_EPOCH><BSTAR>.51072085E-3</BSTAR><MEAN_MOTION_DOT>.10221E-3</MEAN_MOTION_DOT><MEAN_MOTION_DDOT>0</MEAN_MOTION_DDOT></tleParameters></data></segment></body></omm>
<omm id="CCSDS_OMM_VERS" version="2.0">
<header><CREATION_DATE/><ORIGINATOR/></header><body><segment><metadata><OBJECT_NAME>KUIPER-00056</OBJECT_NAME><OBJECT_ID>2025-134S</OBJECT_ID><CENTER_NAME>EARTH</CENTER_NAME><REF_FRAME>TEME</REF_FRAME><TIME_SYSTEM>UTC</TIME_SYSTEM><MEAN_ELEMENT_THEORY>SGP4</MEAN_ELEMENT_THEORY></metadata><data><meanElements><EPOCH>2025-12-18T01:31:05.225088</EPOCH><MEAN_MOTION>14.79931479</MEAN_MOTION><ECCENTRICITY>.00028926</ECCENTRICITY><INCLINATION>51.9019</INCLINATION><RA_OF_ASC_NODE>225.0721</RA_OF_ASC_NODE><ARG_OF_PERICENTER>60.1672</ARG_OF_PERICENTER><MEAN_ANOMALY>299.9577</MEAN_ANOMALY></meanElements><tleParameters><EPHEMERIS_TYPE>0</EPHEMERIS_TYPE><CLASSIFICATION_TYPE>U</CLASSIFICATION_TYPE><NORAD_CAT_ID>64516</NORAD_CAT_ID><ELEMENT_SET_NO>999</ELEMENT_SET_NO><REV_AT_EPOCH>2811</REV_AT_EPOCH><BSTAR>-.11440658E-3</BSTAR><MEAN_MOTION_DOT>-.1094E-4</MEAN_MOTION_DOT><MEAN_MOTION_DDOT>0</MEAN_MOTION_DDOT></tleParameters></data></segment></body></omm>
<omm id="CCSDS_OMM_VERS" version="2.0">
<header><CREATION_DATE/><ORIGINATOR/></header><body><segment><metadata><OBJECT_NAME>KUIPER-00057</OBJECT_NAME><OBJECT_ID>2025-134T</OBJECT_ID><CENTER_NAME>EARTH</CENTER_NAME><REF_FRAME>TEME</REF_FRAME><TIME_SYSTEM>UTC</TIME_SYSTEM><MEAN_ELEMENT_THEORY>SGP4</MEAN_ELEMENT_THEORY></metadata><data><meanElements><EPOCH>2025-12-18T02:56:42.387648</EPOCH><MEAN_MOTION>14.79917177</MEAN_MOTION><ECCENTRICITY>.00095322</ECCENTRICITY><INCLINATION>51.9004</INCLINATION><RA_OF_ASC_NODE>232.2993</RA_OF_ASC_NODE><ARG_OF_PERICENTER>12.6091</ARG_OF_PERICENTER><MEAN_ANOMALY>347.5108</MEAN_ANOMALY></meanElements><tleParameters><EPHEMERIS_TYPE>0</EPHEMERIS_TYPE><CLASSIFICATION_TYPE>U</CLASSIFICATION_TYPE><NORAD_CAT_ID>64517</NORAD_CAT_ID><ELEMENT_SET_NO>999</ELEMENT_SET_NO><REV_AT_EPOCH>2801</REV_AT_EPOCH><BSTAR>-.9414611E-4</BSTAR><MEAN_MOTION_DOT>-.942E-5</MEAN_MOTION_DOT><MEAN_MOTION_DDOT>0</MEAN_MOTION_DDOT></tleParameters></data></segment></body></omm>
<omm id="CCSDS_OMM_VERS" version="2.0">
<header><CREATION_DATE/><ORIGINATOR/></header><body><segment><metadata><OBJECT_NAME>KUIPER-00058</OBJECT_NAME><OBJECT_ID>2025-134U</OBJECT_ID><CENTER_NAME>EARTH</CENTER_NAME><REF_FRAME>TEME</REF_FRAME><TIME_SYSTEM>UTC</TIME_SYSTEM><MEAN_ELEMENT_THEORY>SGP4</MEAN_ELEMENT_THEORY></metadata><data><meanElements><EPOCH>2025-12-18T01:29:38.658336</EPOCH><MEAN_MOTION>14.79920343</MEAN_MOTION><ECCENTRICITY>.00047509</ECCENTRICITY><INCLINATION>51.8992</INCLINATION><RA_OF_ASC_NODE>226.4849</RA_OF_ASC_NODE><ARG_OF_PERICENTER>62.1716</ARG_OF_PERICENTER><MEAN_ANOMALY>297.9727</MEAN_ANOMALY></meanElements><tleParameters><EPHEMERIS_TYPE>0</EPHEMERIS_TYPE><CLASSIFICATION_TYPE>U</CLASSIFICATION_TYPE><NORAD_CAT_ID>64518</NORAD_CAT_ID><ELEMENT_SET_NO>999</ELEMENT_SET_NO><REV_AT_EPOCH>2809</REV_AT_EPOCH><BSTAR>.56191229E-3</BSTAR><MEAN_MOTION_DOT>.4063E-4</MEAN_MOTION_DOT><MEAN_MOTION_DDOT>0</MEAN_MOTION_DDOT></tleParameters></data></segment></body></omm>
<omm id="CCSDS_OMM_VERS" version="2.0">
<header><CREATION_DATE/><ORIGINATOR/></header><body><segment><metadata><OBJECT_NAME>KUIPER-00059</OBJECT_NAME><OBJECT_ID>2025-134V</OBJECT_ID><CENTER_NAME>EARTH</CENTER_NAME><REF_FRAME>TEME</REF_FRAME><TIME_SYSTEM>UTC</TIME_SYSTEM><MEAN_ELEMENT_THEORY>SGP4</MEAN_ELEMENT_THEORY></metadata><data><meanElements><EPOCH>2025-12-17T20:45:21.243744</EPOCH><MEAN_MOTION>14.79929214</MEAN_MOTION><ECCENTRICITY>.00036246</ECCENTRICITY><INCLINATION>51.8990</INCLINATION><RA_OF_ASC_NODE>222.4120</RA_OF_ASC_NODE><ARG_OF_PERICENTER>180.7090</ARG_OF_PERICENTER><MEAN_ANOMALY>179.3868</MEAN_ANOMALY></meanElements><tleParameters><EPHEMERIS_TYPE>0</EPHEMERIS_TYPE><CLASSIFICATION_TYPE>U</CLASSIFICATION_TYPE><NORAD_CAT_ID>64519</NORAD_CAT_ID><ELEMENT_SET_NO>999</ELEMENT_SET_NO><REV_AT_EPOCH>2813</REV_AT_EPOCH><BSTAR>.3891852E-3</BSTAR><MEAN_MOTION_DOT>.2746E-4</MEAN_MOTION_DOT><MEAN_MOTION_DDOT>0</MEAN_MOTION_DDOT></tleParameters></data></segment></body></omm>
<omm id="CCSDS_OMM_VERS" version="2.0">
<header><CREATION_DATE/><ORIGINATOR/></header><body><segment><metadata><OBJECT_NAME>KUIPER-00060</OBJECT_NAME><OBJECT_ID>2025-134W</OBJECT_ID><CENTER_NAME>EARTH</CENTER_NAME><REF_FRAME>TEME</REF_FRAME><TIME_SYSTEM>UTC</TIME_SYSTEM><MEAN_ELEMENT_THEORY>SGP4</MEAN_ELEMENT_THEORY></metadata><data><meanElements><EPOCH>2025-12-17T22:20:38.800032</EPOCH><MEAN_MOTION>14.79935066</MEAN_MOTION><ECCENTRICITY>.00029652</ECCENTRICITY><INCLINATION>51.9027</INCLINATION><RA_OF_ASC_NODE>223.1612</RA_OF_ASC_NODE><ARG_OF_PERICENTER>94.1659</ARG_OF_PERICENTER><MEAN_ANOMALY>265.9642</MEAN_ANOMALY></meanElements><tleParameters><EPHEMERIS_TYPE>0</EPHEMERIS_TYPE><CLASSIFICATION_TYPE>U</CLASSIFICATION_TYPE><NORAD_CAT_ID>64520</NORAD_CAT_ID><ELEMENT_SET_NO>999</ELEMENT_SET_NO><REV_AT_EPOCH>2811</REV_AT_EPOCH><BSTAR>.82037784E-3</BSTAR><MEAN_MOTION_DOT>.6038E-4</MEAN_MOTION_DOT><MEAN_MOTION_DDOT>0</MEAN_MOTION_DDOT></tleParameters></data></segment></body></omm>

</ndm>
